ONEWEB-0674             
1 55833U 23029AP  25138.12927252 -.00000122  00000+0 -36252-3 0  9996
2 55833  87.9062   8.3217 0001611  66.3544 293.7755 13.14502631108199
ONEWEB-0675             
1 55834U 23029AQ  25138.20174037  .00000033  00000+0  49015-4 0  9992
2 55834  87.9249  23.5131 0002088  89.2429 270.8943 13.19724382107532
ONEWEB-0720             
1 55835U 23029AR  25137.20822124  .00000044  00000+0  76846-4 0  9993
2 55835  87.9250  23.7070 0001422  85.6621 274.4674 13.19723974106619
ONEWEB-0537             
1 56046U 23043A   25137.70642571  .00000077  00000+0  16783-3 0  9994
2 56046  87.9025 307.5869 0002042  96.2921 263.8442 13.16593901106924
ONEWEB-0538             
1 56047U 23043B   25137.70009242  .00000098  00000+0  22307-3 0  9999
2 56047  87.9016 307.6098 0001863 104.0559 256.0779 13.16592784106931
ONEWEB-0546             
1 56048U 23043C   25137.91541891  .00000136  00000+0  32222-3 0  9994
2 56048  87.9026 307.5375 0002519  91.9018 268.2401 13.16594002106957
ONEWEB-0547             
1 56049U 23043D   25137.73573409  .00000038  00000+0  61346-4 0  9996
2 56049  87.9235 322.8477 0001747  97.9080 262.2252 13.21824081105989
ONEWEB-0548             
1 56050U 23043E   25138.16873181 -.00004924  00000+0 -12917-1 0  9993
2 56050  87.9019 307.5261 0001107 114.5628 245.5619 13.16618450107894
